{"type": "FeatureCollection", "features": [{"type": "Feature", "geometry": {"type": "Point", "coordinates": [[43.63925228114837, 56.33520384573774]]}, "properties": {"id": "start", "geometry_": null, "fill_": {"color_": "rgba(0,255,0,0.2)"}, "image_": {"opacity_": 1, "rotateWithView_": false, "rotation_": 0, "scale_": 1, "scaleArray_": [1, 1], "displacement_": [0, 0], "canvas_": {}, "hitDetectionCanvas_": null, "fill_": {"color_": "rgba(0,255,0,0.2)"}, "origin_": [0, 0], "points_": null, "radius_": 8, "angle_": 0, "stroke_": {"color_": "#00ff00", "lineDash_": null, "width_": 8}, "size_": [24, 24], "renderOptions_": {"strokeStyle": "#00ff00", "strokeWidth": 8, "size": 24, "lineDash": null, "lineJoin": "round", "miterLimit": 10}}, "renderer_": null, "hitDetectionRenderer_": null, "stroke_": {"color_": "#00ff00", "lineDash_": null, "width_": 8}, "text_": null}}, {"type": "Feature", "geometry": {"type": "Polygon", "coordinates": [[[43.63908639801365, 56.3352880169933], [43.639082724208684, 56.335239064955914], [43.63956854361072, 56.335193045419345], [43.63959332148074, 56.335323600909305], [43.63909941348685, 56.33535006500679]]]}, "properties": {"id": "stop", "geometry_": null, "fill_": {"color_": "rgba(128,0,128,0.2)"}, "image_": {"opacity_": 1, "rotateWithView_": false, "rotation_": 0, "scale_": 1, "scaleArray_": [1, 1], "displacement_": [0, 0], "canvas_": {}, "hitDetectionCanvas_": null, "fill_": {"color_": "rgba(128,0,128,0.2)"}, "origin_": [0, 0], "points_": null, "radius_": 8, "angle_": 0, "stroke_": {"color_": "#800080", "lineDash_": null, "width_": 8}, "size_": [24, 24], "renderOptions_": {"strokeStyle": "#800080", "strokeWidth": 8, "size": 24, "lineDash": null, "lineJoin": "round", "miterLimit": 10}}, "renderer_": null, "hitDetectionRenderer_": null, "stroke_": {"color_": "#800080", "lineDash_": null, "width_": 8}, "text_": null}}, {"type": "Feature", "geometry": {"type": "LineString", "coordinates": [[43.63942884255326, 56.33512098575622], [43.639598892760944, 56.33511974509497], [43.63975848810657, 56.33511542344294], [43.63993641688064, 56.33510244861802], [43.64015082215058, 56.335075293300406], [43.64033428110964, 56.335029423202656], [43.64053364061639, 56.33496532971239], [43.64069569220164, 56.334881634373914], [43.64079527311819, 56.33478971026014]]}, "properties": {"seg_num": "0", "id": "moving", "geometry_": null, "fill_": {"color_": "rgba(0,0,255,0.2)"}, "image_": {"opacity_": 1, "rotateWithView_": false, "rotation_": 0, "scale_": 1, "scaleArray_": [1, 1], "displacement_": [0, 0], "canvas_": {}, "hitDetectionCanvas_": null, "fill_": {"color_": "rgba(0,0,255,0.2)"}, "origin_": [0, 0], "points_": null, "radius_": 8, "angle_": 0, "stroke_": {"color_": "#0000ff", "lineDash_": null, "width_": 8}, "size_": [24, 24], "renderOptions_": {"strokeStyle": "#0000ff", "strokeWidth": 8, "size": 24, "lineDash": null, "lineJoin": "round", "miterLimit": 10}}, "renderer_": null, "hitDetectionRenderer_": null, "stroke_": {"color_": "#0000ff", "lineDash_": null, "width_": 8}, "text_": null}}, {"type": "Feature", "geometry": {"type": "Polygon", "coordinates": [[[43.640775605458195, 56.33486597816395], [43.64072639830369, 56.334760176137195], [43.64092182411513, 56.33476476860233], [43.64096340870661, 56.33486249322638], [43.640870707996925, 56.334869894740876]]]}, "properties": {"id": "turn", "geometry_": null, "fill_": {"color_": "rgba(255,255,0,0.2)"}, "image_": {"opacity_": 1, "rotateWithView_": false, "rotation_": 0, "scale_": 1, "scaleArray_": [1, 1], "displacement_": [0, 0], "canvas_": {}, "hitDetectionCanvas_": null, "fill_": {"color_": "rgba(255,255,0,0.2)"}, "origin_": [0, 0], "points_": null, "radius_": 8, "angle_": 0, "stroke_": {"color_": "#ffff00", "lineDash_": null, "width_": 8}, "size_": [24, 24], "renderOptions_": {"strokeStyle": "#ffff00", "strokeWidth": 8, "size": 24, "lineDash": null, "lineJoin": "round", "miterLimit": 10}}, "renderer_": null, "hitDetectionRenderer_": null, "stroke_": {"color_": "#ffff00", "lineDash_": null, "width_": 8}, "text_": null, "seg_num": 1}}, {"type": "Feature", "geometry": {"type": "LineString", "coordinates": [[43.64086702254319, 56.334819365388256], [43.64068365674204, 56.334958368993824], [43.64042048325542, 56.33506708714509], [43.64007931517785, 56.33515109511751], [43.63980527218232, 56.33519515741659], [43.63947135510518, 56.335243811023275]]}, "properties": {"seg_num": "1", "id": "moving", "geometry_": null, "fill_": {"color_": "rgba(0,0,255,0.2)"}, "image_": {"opacity_": 1, "rotateWithView_": false, "rotation_": 0, "scale_": 1, "scaleArray_": [1, 1], "displacement_": [0, 0], "canvas_": {}, "hitDetectionCanvas_": null, "fill_": {"color_": "rgba(0,0,255,0.2)"}, "origin_": [0, 0], "points_": null, "radius_": 8, "angle_": 0, "stroke_": {"color_": "#0000ff", "lineDash_": null, "width_": 8}, "size_": [24, 24], "renderOptions_": {"strokeStyle": "#0000ff", "strokeWidth": 8, "size": 24, "lineDash": null, "lineJoin": "round", "miterLimit": 10}}, "renderer_": null, "hitDetectionRenderer_": null, "stroke_": {"color_": "#0000ff", "lineDash_": null, "width_": 8}, "text_": null}}]}